{"type": "FeatureCollection", "features": [ {"type": "Feature", "properties": {"norad_id": 28659, "name": "DIRECTV 8", "group": "intelsat", "lat": 0.018604778868603736, "lon": 136.98393066837195, "alt_km": 35794.08873515839, "timestamp": "2025-12-12T11:38:31.083741+00:00", "meta": {"OBJECT_NAME": "DIRECTV 8", "OBJECT_ID": "2005-019A", "EPOCH": "2025-12-12T03:54:38.682144", "MEAN_MOTION": 1.00271701, "ECCENTRICITY": 0.0003037, "INCLINATION": 0.0178, "RA_OF_ASC_NODE": 56.8844, "ARG_OF_PERICENTER": 208.6512, "MEAN_ANOMALY": 115.1956, "EPHEMERIS_TYPE": 0, "CLASSIFICATION_TYPE": "U", "NORAD_CAT_ID": 28659, "ELEMENT_SET_NO": 999, "REV_AT_EPOCH": 7519, "BSTAR": 0, "MEAN_MOTION_DOT": 1.1e-07, "MEAN_MOTION_DDOT": 0}, "tle": {"line1": "1 28659U 05019A   25346.16294771  .00000011  00000+0  00000+0 0  9992", "line2": "2 28659   0.0178  56.8844 0003037 208.6512 115.1956  1.00271701 75199"}}, "geometry": {"type": "Point", "coordinates": [136.98393066837195, 0.018604778868603736]}}, {"type": "Feature", "properties": {"norad_id": 28702, "name": "GALAXY 28 (G-28)", "group": "intelsat", "lat": 2.809438231373022, "lon": 167.3350108962661, "alt_km": 35787.04879398311, "timestamp": "2025-12-12T11:38:31.083753+00:00", "meta": {"OBJECT_NAME": "GALAXY 28 (G-28)", "OBJECT_ID": "2005-022A", "EPOCH": "2025-12-12T02:47:11.001984", "MEAN_MOTION": 1.00271997, "ECCENTRICITY": 0.0002786, "INCLINATION": 2.8171, "RA_OF_ASC_NODE": 81.288, "ARG_OF_PERICENTER": 182.7726, "MEAN_ANOMALY": 130.1154, "EPHEMERIS_TYPE": 0, "CLASSIFICATION_TYPE": "U", "NORAD_CAT_ID": 28702, "ELEMENT_SET_NO": 999, "REV_AT_EPOCH": 5009, "BSTAR": 0, "MEAN_MOTION_DOT": -1.78e-06, "MEAN_MOTION_DDOT": 0}, "tle": {"line1": "1 28702U 05022A   25346.11609956 -.00000178  00000+0  00000+0 0  9990", "line2": "2 28702   2.8171  81.2880 0002786 182.7726 130.1154  1.00271997 50098"}}, "geometry": {"type": "Point", "coordinates": [167.3350108962661, 2.809438231373022]}}, {"type": "Feature", "properties": {"norad_id": 29236, "name": "GALAXY 16 (G-16)", "group": "intelsat", "lat": 0.021916971019263144, "lon": 157.01938729154935, "alt_km": 35788.138013866774, "timestamp": "2025-12-12T11:38:31.083765+00:00", "meta": {"OBJECT_NAME": "GALAXY 16 (G-16)", "OBJECT_ID": "2006-023A", "EPOCH": "2025-12-12T02:44:11.289120", "MEAN_MOTION": 1.00272293, "ECCENTRICITY": 0.0002667, "INCLINATION": 0.0475, "RA_OF_ASC_NODE": 136.4139, "ARG_OF_PERICENTER": 121.805, "MEAN_ANOMALY": 124.8874, "EPHEMERIS_TYPE": 0, "CLASSIFICATION_TYPE": "U", "NORAD_CAT_ID": 29236, "ELEMENT_SET_NO": 999, "REV_AT_EPOCH": 7109, "BSTAR": 0, "MEAN_MOTION_DOT": -1.17e-06, "MEAN_MOTION_DDOT": 0}, "tle": {"line1": "1 29236U 06023A   25346.11401955 -.00000117  00000+0  00000+0 0  9997", "line2": "2 29236   0.0475 136.4139 0002667 121.8050 124.8874  1.00272293 71092"}}, "geometry": {"type": "Point", "coordinates": [157.01938729154935, 0.021916971019263144]}}, {"type": "Feature", "properties": {"norad_id": 29494, "name": "DIRECTV 9S", "group": "intelsat", "lat": 1.8421333016821426, "lon": 154.80185184803128, "alt_km": 35790.079996222295, "timestamp": "2025-12-12T11:38:31.083776+00:00", "meta": {"OBJECT_NAME": "DIRECTV 9S", "OBJECT_ID": "2006-043A", "EPOCH": "2025-12-12T03:38:38.555232", "MEAN_MOTION": 1.0027183, "ECCENTRICITY": 0.0003029, "INCLINATION": 1.939, "RA_OF_ASC_NODE": 83.2161, "ARG_OF_PERICENTER": 180.9812, "MEAN_ANOMALY": 130.3532, "EPHEMERIS_TYPE": 0, "CLASSIFICATION_TYPE": "U", "NORAD_CAT_ID": 29494, "ELEMENT_SET_NO": 999, "REV_AT_EPOCH": 4950, "BSTAR": 0, "MEAN_MOTION_DOT": -1.04e-06, "MEAN_MOTION_DDOT": 0}, "tle": {"line1": "1 29494U 06043A   25346.15183513 -.00000104  00000+0  00000+0 0  9992", "line2": "2 29494   1.9390  83.2161 0003029 180.9812 130.3532  1.00271830 49503"}}, "geometry": {"type": "Point", "coordinates": [154.80185184803128, 1.8421333016821426]}}, {"type": "Feature", "properties": {"norad_id": 31307, "name": "GALAXY 17 (G-17)", "group": "intelsat", "lat": 2.495740603363437, "lon": 171.008549448319, "alt_km": 35779.32534247091, "timestamp": "2025-12-12T11:38:31.083788+00:00", "meta": {"OBJECT_NAME": "GALAXY 17 (G-17)", "OBJECT_ID": "2007-016B", "EPOCH": "2025-12-12T02:48:18.393984", "MEAN_MOTION": 1.00272492, "ECCENTRICITY": 0.0005872, "INCLINATION": 2.4988, "RA_OF_ASC_NODE": 82.2914, "ARG_OF_PERICENTER": 164.0619, "MEAN_ANOMALY": 151.8075, "EPHEMERIS_TYPE": 0, "CLASSIFICATION_TYPE": "U", "NORAD_CAT_ID": 31307, "ELEMENT_SET_NO": 999, "REV_AT_EPOCH": 6792, "BSTAR": 0, "MEAN_MOTION_DOT": -1.97e-06, "MEAN_MOTION_DDOT": 0}, "tle": {"line1": "1 31307U 07016B   25346.11687956 -.00000197  00000+0  00000+0 0  9997", "line2": "2 31307   2.4988  82.2914 0005872 164.0619 151.8075  1.00272492 67920"}}, "geometry": {"type": "Point", "coordinates": [171.008549448319, 2.495740603363437]}}, {"type": "Feature", "properties": {"norad_id": 31862, "name": "DIRECTV 10", "group": "intelsat", "lat": -0.0004357108145070942, "lon": 153.26764744181634, "alt_km": 35785.842163415764, "timestamp": "2025-12-12T11:38:31.083804+00:00", "meta": {"OBJECT_NAME": "DIRECTV 10", "OBJECT_ID": "2007-032A", "EPOCH": "2025-12-11T14:44:08.030112", "MEAN_MOTION": 1.00271436, "ECCENTRICITY": 3.191e-05, "INCLINATION": 0.0124, "RA_OF_ASC_NODE": 167.5307, "ARG_OF_PERICENTER": 60.5816, "MEAN_ANOMALY": 330.7109, "EPHEMERIS_TYPE": 0, "CLASSIFICATION_TYPE": "U", "NORAD_CAT_ID": 31862, "ELEMENT_SET_NO": 999, "REV_AT_EPOCH": 4371, "BSTAR": 0, "MEAN_MOTION_DOT": -9.6e-07, "MEAN_MOTION_DDOT": 0}, "tle": {"line1": "1 31862U 07032A   25345.61398183 -.00000096  00000+0  00000+0 0  9994", "line2": "2 31862   0.0124 167.5307 0000319  60.5816 330.7109  1.00271436 43719"}}, "geometry": {"type": "Point", "coordinates": [153.26764744181634, -0.0004357108145070942]}}, {"type": "Feature", "properties": {"norad_id": 32253, "name": "INTELSAT 11 (IS-11)", "group": "intelsat", "lat": 2.063955738473758, "lon": 122.72787672977647, "alt_km": 36153.43845918177, "timestamp": "2025-12-12T11:38:31.083815+00:00", "meta": {"OBJECT_NAME": "INTELSAT 11 (IS-11)", "OBJECT_ID": "2007-044B", "EPOCH": "2025-12-12T04:02:38.642784", "MEAN_MOTION": 0.99048605, "ECCENTRICITY": 0.0008913, "INCLINATION": 3.079, "RA_OF_ASC_NODE": 80.9827, "ARG_OF_PERICENTER": 165.6473, "MEAN_ANOMALY": 123.3406, "EPHEMERIS_TYPE": 0, "CLASSIFICATION_TYPE": "U", "NORAD_CAT_ID": 32253, "ELEMENT_SET_NO": 999, "REV_AT_EPOCH": 6659, "BSTAR": 0, "MEAN_MOTION_DOT": 8.1e-07, "MEAN_MOTION_DDOT": 0}, "tle": {"line1": "1 32253U 07044B   25346.16850281  .00000081  00000+0  00000+0 0  9998", "line2": "2 32253   3.0790  80.9827 0008913 165.6473 123.3406  0.99048605 66599"}}, "geometry": {"type": "Point", "coordinates": [122.72787672977647, 2.063955738473758]}}, {"type": "Feature", "properties": {"norad_id": 32388, "name": "HORIZONS-2", "group": "intelsat", "lat": 2.08627639803733, "lon": -177.79016086336878, "alt_km": 35786.41109276966, "timestamp": "2025-12-12T11:38:31.083827+00:00", "meta": {"OBJECT_NAME": "HORIZONS-2", "OBJECT_ID": "2007-063B", "EPOCH": "2025-12-12T02:51:25.596000", "MEAN_MOTION": 1.00269986, "ECCENTRICITY": 0.0004917, "INCLINATION": 2.1201, "RA_OF_ASC_NODE": 82.9671, "ARG_OF_PERICENTER": 189.5346, "MEAN_ANOMALY": 137.63, "EPHEMERIS_TYPE": 0, "CLASSIFICATION_TYPE": "U", "NORAD_CAT_ID": 32388, "ELEMENT_SET_NO": 999, "REV_AT_EPOCH": 6593, "BSTAR": 0, "MEAN_MOTION_DOT": -2.44e-06, "MEAN_MOTION_DDOT": 0}, "tle": {"line1": "1 32388U 07063B   25346.11904625 -.00000244  00000+0  00000+0 0  9997", "line2": "2 32388   2.1201  82.9671 0004917 189.5346 137.6300  1.00269986 65936"}}, "geometry": {"type": "Point", "coordinates": [-177.79016086336878, 2.08627639803733]}}, {"type": "Feature", "properties": {"norad_id": 32729, "name": "DIRECTV 11", "group": "intelsat", "lat": -0.01837023070007596, "lon": 156.85823849928042, "alt_km": 35784.309568134864, "timestamp": "2025-12-12T11:38:31.083838+00:00", "meta": {"OBJECT_NAME": "DIRECTV 11", "OBJECT_ID": "2008-013A", "EPOCH": "2025-12-11T21:35:58.588224", "MEAN_MOTION": 1.00271084, "ECCENTRICITY": 5.41e-05, "INCLINATION": 0.0355, "RA_OF_ASC_NODE": 183.5345, "ARG_OF_PERICENTER": 2.2866, "MEAN_ANOMALY": 119.8352, "EPHEMERIS_TYPE": 0, "CLASSIFICATION_TYPE": "U", "NORAD_CAT_ID": 32729, "ELEMENT_SET_NO": 999, "REV_AT_EPOCH": 4371, "BSTAR": 0, "MEAN_MOTION_DOT": -1.17e-06, "MEAN_MOTION_DDOT": 0}, "tle": {"line1": "1 32729U 08013A   25345.89998366 -.00000117  00000+0  00000+0 0  9990", "line2": "2 32729   0.0355 183.5345 0000541   2.2866 119.8352  1.00271084 43718"}}, "geometry": {"type": "Point", "coordinates": [156.85823849928042, -0.01837023070007596]}}, {"type": "Feature", "properties": {"norad_id": 32951, "name": "GALAXY 18 (G-18)", "group": "intelsat", "lat": 0.008327914577901245, "lon": 133.02046016588068, "alt_km": 35794.53519284052, "timestamp": "2025-12-12T11:38:31.083850+00:00", "meta": {"OBJECT_NAME": "GALAXY 18 (G-18)", "OBJECT_ID": "2008-024A", "EPOCH": "2025-12-12T02:56:38.651712", "MEAN_MOTION": 1.00271376, "ECCENTRICITY": 0.0003045, "INCLINATION": 0.0198, "RA_OF_ASC_NODE": 321.3607, "ARG_OF_PERICENTER": 302.1483, "MEAN_ANOMALY": 98.7187, "EPHEMERIS_TYPE": 0, "CLASSIFICATION_TYPE": "U", "NORAD_CAT_ID": 32951, "ELEMENT_SET_NO": 999, "REV_AT_EPOCH": 4397, "BSTAR": 0, "MEAN_MOTION_DOT": 3.5e-07, "MEAN_MOTION_DDOT": 0}, "tle": {"line1": "1 32951U 08024A   25346.12266958  .00000035  00000+0  00000+0 0  9999", "line2": "2 32951   0.0198 321.3607 0003045 302.1483  98.7187  1.00271376 43975"}}, "geometry": {"type": "Point", "coordinates": [133.02046016588068, 0.008327914577901245]}}]}